{
  "type": "FeatureCollection",
  "generator": "overpass-ide",
  "copyright": "The data included in this document is from www.openstreetmap.org. The data is made available under ODbL.",
  "timestamp": "2021-01-02T10:10:02Z",
  "features": [
    {
      "type": "Feature",
      "properties": {
        "@id": "node/282546216",
        "addr:city": "Praha",
        "addr:housenumber": "371",
        "addr:postcode": "18600",
        "addr:street": "Sokolovská",
        "addr:unit": "1",
        "amenity": "bank",
        "atm": "yes",
        "brand": "Česká spořitelna",
        "brand:wikidata": "Q341100",
        "brand:wikipedia": "en:Česká spořitelna",
        "currency:CHF": "yes",
        "currency:CZK": "yes",
        "currency:EUR": "yes",
        "currency:PLN": "yes",
        "currency:USD": "yes",
        "drive_through": "no",
        "level": "0,_1",
        "name": "Česká spořitelna",
        "opening_hours": "Mo-Th 09:00-18:00; Fr 09:00-16:00",
        "operator": "Česká spořitelna",
        "website": "https://www.csas.cz/",
        "wheelchair": "yes"
      },
      "geometry": {
        "type": "Point",
        "coordinates": [
          14.4385146,
          50.0912961
        ]
      },
      "id": "node/282546216"
    },
    {
      "type": "Feature",
      "properties": {
        "@id": "node/296622359",
        "addr:conscriptionnumber": "264",
        "addr:housenumber": "264/22",
        "addr:postcode": "18600",
        "addr:street": "Křižíkova",
        "addr:streetnumber": "22",
        "source:addr": "uir_adr",
        "uir_adr:ADRESA_KOD": "22351329"
      },
      "geometry": {
        "type": "Point",
        "coordinates": [
          14.4465919,
          50.0913815
        ]
      },
      "id": "node/296622359"
    },
    {
      "type": "Feature",
      "properties": {
        "@id": "node/296622921",
        "addr:conscriptionnumber": "249",
        "addr:housenumber": "249/46",
        "addr:postcode": "18600",
        "addr:street": "Pobřežní",
        "addr:streetnumber": "46",
        "source:addr": "uir_adr",
        "uir_adr:ADRESA_KOD": "22351159"
      },
      "geometry": {
        "type": "Point",
        "coordinates": [
          14.4487137,
          50.0940132
        ]
      },
      "id": "node/296622921"
    },
    {
      "type": "Feature",
      "properties": {
        "@id": "node/296623543",
        "addr:conscriptionnumber": "549",
        "addr:housenumber": "549/5",
        "addr:postcode": "18600",
        "addr:street": "U invalidovny",
        "addr:streetnumber": "5",
        "source:addr": "uir_adr",
        "uir_adr:ADRESA_KOD": "22354565"
      },
      "geometry": {
        "type": "Point",
        "coordinates": [
          14.4608091,
          50.0931927
        ]
      },
      "id": "node/296623543"
    },
    {
      "type": "Feature",
      "properties": {
        "@id": "node/296636635",
        "addr:conscriptionnumber": "71",
        "addr:housenumber": "71/14",
        "addr:postcode": "18600",
        "addr:street": "U Sluncové",
        "addr:streetnumber": "14",
        "name": "Olympik Tristar",
        "source:addr": "uir_adr",
        "tourism": "hotel",
        "uir_adr:ADRESA_KOD": "22349235"
      },
      "geometry": {
        "type": "Point",
        "coordinates": [
          14.4706261,
          50.0988315
        ]
      },
      "id": "node/296636635"
    },
    {
      "type": "Feature",
      "properties": {
        "@id": "node/296623598",
        "addr:conscriptionnumber": "278",
        "addr:housenumber": "278/36",
        "addr:place": "Karlín",
        "addr:postcode": "18600",
        "addr:street": "Šaldova",
        "addr:streetnumber": "36",
        "ref:ruian:addr": "22351493"
      },
      "geometry": {
        "type": "Point",
        "coordinates": [
          14.454847,
          50.0952469
        ]
      },
      "id": "node/296623598"
    },
    {
      "type": "Feature",
      "properties": {
        "@id": "node/7876090868",
        "addr:conscriptionnumber": "702",
        "addr:housenumber": "702/39",
        "addr:place": "Karlín",
        "addr:postcode": "18600",
        "addr:street": "Pernerova",
        "addr:streetnumber": "39",
        "ref:ruian:addr": "81033729"
      },
      "geometry": {
        "type": "Point",
        "coordinates": [
          14.452355,
          50.0909055
        ]
      },
      "id": "node/7876090868"
    },
    {
      "type": "Feature",
      "properties": {
        "@id": "node/7876098009",
        "addr:conscriptionnumber": "700",
        "addr:housenumber": "700/113a",
        "addr:place": "Karlín",
        "addr:postcode": "18600",
        "addr:street": "Sokolovská",
        "addr:streetnumber": "113a",
        "ref:ruian:addr": "81033427"
      },
      "geometry": {
        "type": "Point",
        "coordinates": [
          14.4643097,
          50.0977964
        ]
      },
      "id": "node/7876098009"
    },
    {
      "type": "Feature",
      "properties": {
        "@id": "node/7876099448",
        "addr:conscriptionnumber": "701",
        "addr:housenumber": "701/37",
        "addr:place": "Karlín",
        "addr:postcode": "18600",
        "addr:street": "Pernerova",
        "addr:streetnumber": "37",
        "ref:ruian:addr": "81033541"
      },
      "geometry": {
        "type": "Point",
        "coordinates": [
          14.4517502,
          50.0911153
        ]
      },
      "id": "node/7876099448"
    },
    {
      "type": "Feature",
      "properties": {
        "@id": "node/8175553749",
        "addr:conscriptionnumber": "703",
        "addr:housenumber": "703/97d",
        "addr:place": "Karlín",
        "addr:postcode": "18600",
        "addr:street": "Křižíkova",
        "addr:streetnumber": "97d",
        "ref:ruian:addr": "81310498"
      },
      "geometry": {
        "type": "Point",
        "coordinates": [
          14.4540909,
          50.0939121
        ]
      },
      "id": "node/8175553749"
    },
    {
      "type": "Feature",
      "properties": {
        "@id": "node/8175553750",
        "addr:conscriptionnumber": "703",
        "addr:housenumber": "703/97c",
        "addr:place": "Karlín",
        "addr:postcode": "18600",
        "addr:street": "Křižíkova",
        "addr:streetnumber": "97c",
        "ref:ruian:addr": "81310668"
      },
      "geometry": {
        "type": "Point",
        "coordinates": [
          14.4540896,
          50.0937622
        ]
      },
      "id": "node/8175553750"
    },
    {
      "type": "Feature",
      "properties": {
        "@id": "node/8175553751",
        "addr:conscriptionnumber": "703",
        "addr:housenumber": "703/97b",
        "addr:place": "Karlín",
        "addr:postcode": "18600",
        "addr:street": "Křižíkova",
        "addr:streetnumber": "97b",
        "ref:ruian:addr": "81310625"
      },
      "geometry": {
        "type": "Point",
        "coordinates": [
          14.4543638,
          50.0937154
        ]
      },
      "id": "node/8175553751"
    },
    {
      "type": "Feature",
      "properties": {
        "@id": "node/8175553752",
        "addr:conscriptionnumber": "703",
        "addr:housenumber": "703/97a",
        "addr:place": "Karlín",
        "addr:postcode": "18600",
        "addr:street": "Křižíkova",
        "addr:streetnumber": "97a",
        "ref:ruian:addr": "81310609"
      },
      "geometry": {
        "type": "Point",
        "coordinates": [
          14.4539992,
          50.0935816
        ]
      },
      "id": "node/8175553752"
    },
    {
      "type": "Feature",
      "properties": {
        "@id": "node/8175553753",
        "addr:conscriptionnumber": "703",
        "addr:housenumber": "703/97",
        "addr:place": "Karlín",
        "addr:postcode": "18600",
        "addr:street": "Křižíkova",
        "addr:streetnumber": "97",
        "ref:ruian:addr": "81307926"
      },
      "geometry": {
        "type": "Point",
        "coordinates": [
          14.4542779,
          50.0933867
        ]
      },
      "id": "node/8175553753"
    },
    {
      "type": "Feature",
      "properties": {
        "@id": "node/8219629373",
        "addr:conscriptionnumber": "704",
        "addr:housenumber": "704/9",
        "addr:place": "Karlín",
        "addr:postcode": "18600",
        "addr:street": "Breitfeldova",
        "addr:streetnumber": "9",
        "ref:ruian:addr": "81341580"
      },
      "geometry": {
        "type": "Point",
        "coordinates": [
          14.4526795,
          50.0959358
        ]
      },
      "id": "node/8219629373"
    },
    {
      "type": "Feature",
      "properties": {
        "@id": "node/8219629374",
        "addr:conscriptionnumber": "704",
        "addr:housenumber": "704/7",
        "addr:place": "Karlín",
        "addr:postcode": "18600",
        "addr:street": "Breitfeldova",
        "addr:streetnumber": "7",
        "ref:ruian:addr": "81341563"
      },
      "geometry": {
        "type": "Point",
        "coordinates": [
          14.4529299,
          50.0959771
        ]
      },
      "id": "node/8219629374"
    },
    {
      "type": "Feature",
      "properties": {
        "@id": "node/8219629375",
        "addr:conscriptionnumber": "704",
        "addr:housenumber": "704/5",
        "addr:place": "Karlín",
        "addr:postcode": "18600",
        "addr:street": "Breitfeldova",
        "addr:streetnumber": "5",
        "ref:ruian:addr": "81341369"
      },
      "geometry": {
        "type": "Point",
        "coordinates": [
          14.4531642,
          50.0960143
        ]
      },
      "id": "node/8219629375"
    },
    {
      "type": "Feature",
      "properties": {
        "@id": "node/8219629376",
        "addr:conscriptionnumber": "704",
        "addr:housenumber": "704/3",
        "addr:place": "Karlín",
        "addr:postcode": "18600",
        "addr:street": "Breitfeldova",
        "addr:streetnumber": "3",
        "ref:ruian:addr": "81341342"
      },
      "geometry": {
        "type": "Point",
        "coordinates": [
          14.4533627,
          50.0960455
        ]
      },
      "id": "node/8219629376"
    },
    {
      "type": "Feature",
      "properties": {
        "@id": "node/8219629377",
        "addr:conscriptionnumber": "704",
        "addr:housenumber": "704/1",
        "addr:place": "Karlín",
        "addr:postcode": "18600",
        "addr:street": "Breitfeldova",
        "addr:streetnumber": "1",
        "ref:ruian:addr": "81338384"
      },
      "geometry": {
        "type": "Point",
        "coordinates": [
          14.4537557,
          50.096148
        ]
      },
      "id": "node/8219629377"
    },
    {
      "type": "Feature",
      "properties": {
        "@id": "node/8221562805",
        "addr:city": "Praha 8",
        "addr:housenumber": "667/78",
        "addr:postcode": "186 00",
        "addr:street": "Pobřežní",
        "level": "7",
        "name": "Digismoothie",
        "office": "company",
        "phone": "+420 724 123 274",
        "website": "https://digismoothie.com/"
      },
      "geometry": {
        "type": "Point",
        "coordinates": [
          14.4539549,
          50.0951853
        ]
      },
      "id": "node/8221562805"
    }
  ]
}